[{"OBJECT_NAME":"STARLINK-4633","OBJECT_ID":"2022-125A","EPOCH":"2026-03-09T17:08:31.007328","MEAN_MOTION":15.08837549,"ECCENTRICITY":0.00011762,"INCLINATION":53.2183,"RA_OF_ASC_NODE":224.1661,"ARG_OF_PERICENTER":90.8127,"MEAN_ANOMALY":269.3,"EPHEMERIS_TYPE":0,"CLASSIFICATION_TYPE":"U","NORAD_CAT_ID":53964,"ELEMENT_SET_NO":999,"REV_AT_EPOCH":18932,"BSTAR":3.21113e-7,"MEAN_MOTION_DOT":-2.83e-6,"MEAN_MOTION_DDOT":0},{"OBJECT_NAME":"DIAMANT DEB","OBJECT_ID":"1967-014F","EPOCH":"2026-03-08T22:12:40.817952","MEAN_MOTION":14.36285339,"ECCENTRICITY":0.034388,"INCLINATION":38.9293,"RA_OF_ASC_NODE":272.8082,"ARG_OF_PERICENTER":97.8602,"MEAN_ANOMALY":266.1323,"EPHEMERIS_TYPE":0,"CLASSIFICATION_TYPE":"U","NORAD_CAT_ID":2685,"ELEMENT_SET_NO":999,"REV_AT_EPOCH":95305,"BSTAR":0.0015965488,"MEAN_MOTION_DOT":9.263e-5,"MEAN_MOTION_DDOT":0}]
